37P/Forbes,e,8.9533,314.5669,330.1121,3.461397,0.1530477,0.53323646,246.1153,09/28.0/2022,2000,g 13.8,4.0
# From MPEC 2018-S50
38P/Stephan-Oterma,e,18.3833,77.9171,359.4996,11.23638,0.0261676,0.85932418,37.0638,09/28.0/2022,2000,g  3.5,12.0
# From MPEC 2022-A21
39P/Oterma,e,1.5458,298.1323,99.1921,7.313998,0.0498278,0.21897989,346.8149,09/28.0/2022,2000,g  7.0,6.0
# From MPC100283
40P/Vaisala,e,11.4675,133.7538,47.3842,4.954563,0.0893709,0.63016860,257.6637,09/28.0/2022,2000,g  5.5,12.0
# From MPC105240
41P/Tuttle-Giacobini-Kresak,e,9.2206,140.9888,62.2104,3.088258,0.1816075,0.65995398,2.6497,09/28.0/2022,2000,g 10.0,16.0
# From MPC 94283
42P/Neujmin,e,3.9914,150.1751,147.2338,4.873614,0.0916067,0.58480848,249.6749,09/28.0/2022,2000,g 13.0,6.0
# From MPEC 2022-C56
43P/Wolf-Harrington,e,9.3321,244.0480,224.0894,4.319489,0.1097882,0.43523711,245.4499,09/28.0/2022,2000,g  8.0,6.0
# From MPEC 2022-ST7
44P/Reinmuth,e,5.8959,286.4392,58.0656,3.690847,0.1390001,0.42764954,21.9424,09/28.0/2022,2000,g  8.3,6.0
# From MPEC 2022-O01
45P/Honda-Mrkos-Pajdusakova,e,4.3227,87.6998,327.9120,3.055269,0.1845567,0.81762284,28.4302,09/28.0/2022,2000,g 13.5,8.0
# From MPEC 2021-O56
46P/Wirtanen,e,11.7482,82.1595,356.3267,3.091742,0.1813006,0.65861302,251.2923,09/28.0/2022,2000,g 14.0,6.0
# From MPEC 2022-HC2
47P/Ashbrook-Jackson,e,13.0411,356.9212,357.7229,4.122479,0.1177515,0.31869529,227.5183,09/28.0/2022,2000,g  1.0,11.2
# From MPEC 2021-F20
48P/Johnson,e,12.2018,110.1030,216.7240,3.501051,0.1504549,0.42725964,226.6649,09/28.0/2022,2000,g 12.4,4.0
# From MPEC 2021-F20
49P/Arend-Rigaux,e,19.0498,118.7929,332.9200,3.569551,0.1461449,0.59845624,224.6665,09/28.0/2022,2000,g 13.4,4.0
# From MPEC 2015-S97
50P/Arend,e,19.1006,355.1773,49.3345,4.087740,0.1192557,0.52951801,289.2934,09/28.0/2022,2000,g  9.5,6.0
# From MPEC 2022-ST7
51P/Harrington,e,5.4262,83.6760,269.2663,3.707821,0.1380467,0.54351833,359.4838,09/28.0/2022,2000,g 10.0,8.0
# From NK 3014
51P-A/Harrington,e,5.4257,83.6705,269.2533,3.709744,0.1379393,0.54373544,359.1862,09/28.0/2022,2000,g 10.0,8.0
# From MPEC 2022-PB4
51P-D/Harrington,e,5.4264,83.6568,269.2993,3.708945,0.1379839,0.54369592,359.4810,09/28.0/2022,2000,g 16.0,8.0
# From MPEC 2022-L66
52P/Harrington-Abell,e,10.2312,336.8347,139.5707,3.864238,0.1297503,0.54020276,46.4283,09/28.0/2022,2000,g 13.5,6.0
# From MPC100283
53P/Van Biesbroeck,e,6.6091,148.8148,134.5069,5.431086,0.0778707,0.55086719,182.4106,09/28.0/2022,2000,g  7.7,4.8
# From MPC 89011
54P/de Vico-Swift-NEAT,e,6.0646,358.8163,1.8571,3.789285,0.1336190,0.42643157,265.5764,09/28.0/2022,2000,g  9.0,4.0
# From MPC 31070
55P/Tempel-Tuttle,e,162.4895,235.4163,172.4764,10.35704,0.0295700,0.90550327,266.6605,09/28.0/2022,2000,g  9.0,4.0
# From MPC101100
56P/Slaughter-Burnham,e,8.1605,345.9901,44.0144,5.066727,0.0864197,0.50834623,195.2139,09/28.0/2022,2000,g  8.5,6.0
# From MPEC 2022-ST7
57P/duToit-Neujmin-Delporte,e,2.8523,188.7733,115.1805,3.444904,0.1541482,0.50093254,53.2928,09/28.0/2022,2000,g 12.5,6.0
# From MPEC 2021-O56
58P/Jackson-Neujmin,e,13.1081,159.0748,200.5254,4.087570,0.1192631,0.66279251,101.7603,09/28.0/2022,2000,g 15.5,6.0
# From MPEC 2021-F20
59P/Kearns-Kwee,e,9.3429,312.8055,127.5060,4.484048,0.1038003,0.47588439,152.7820,09/28.0/2022,2000,g  7.0,6.0
# From MPEC 2021-F20
60P/Tsuchinshan,e,3.5813,267.4619,216.9858,3.525644,0.1488834,0.53365618,207.0705,09/28.0/2022,2000,g 11.5,6.0
# From MPEC 2022-ST7
61P/Shajn-Schaldach,e,5.9996,162.9657,221.6661,3.691852,0.1389433,0.42418466,356.4108,09/28.0/2022,2000,g  6.0,10.0
# From MPC109147
62P/Tsuchinshan,e,4.7358,68.7501,47.3400,3.367165,0.1595172,0.62540258,287.7554,09/28.0/2022,2000,g  8.0,10.0
# From MPC 84320
63P/Wild,e,19.7292,358.0187,169.0064,5.610878,0.0741580,0.64944227,257.5808,09/28.0/2022,2000,g 10.5,6.0
# From MPEC 2021-F20
64P/Swift-Gehrels,e,8.9489,299.9349,97.1256,4.452720,0.1048977,0.68855300,149.2498,09/28.0/2022,2000,g 13.4,4.0
# From MPEC 2022-K19
65P/Gunn,e,9.1761,61.9926,213.8973,3.888337,0.1285459,0.24863542,232.3502,09/28.0/2022,2000,g  5.0,6.0
# From MPEC 2021-F20
66P/duToit,e,18.6394,21.7821,257.4753,6.069900,0.0659070,0.78605756,105.0372,09/28.0/2022,2000,g 15.0,4.0
# From MPEC 2022-PB4
67P/Churyumov-Gerasimenko,e,3.8718,36.3295,22.1463,3.456857,0.1533493,0.64980863,50.5906,09/28.0/2022,2000,g 11.0,4.0
# From MPEC 2022-H04
68P/Klemola,e,11.1116,175.0451,153.2301,4.958077,0.0892759,0.63736593,94.0882,09/28.0/2022,2000,g 12.7,4.0
# From MPC114607
69P/Taylor,e,22.0424,104.8095,343.3932,3.885021,0.1287105,0.41367307,165.9921,09/28.0/2022,2000,g  9.5,12.0
# From MPEC 2022-P82
70P/Kojima,e,6.5977,119.2619,1.8086,3.677866,0.1397366,0.45386147,45.9628,09/28.0/2022,2000,g 11.0,6.0
# From MPEC 2022-M88
71P/Clark,e,9.4379,59.3938,209.0682,3.138754,0.1772426,0.49381206,339.2979,09/28.0/2022,2000,g  9.8,6.0
# From MPC 89011
72P/Denning-Fujikawa,e,10.9485,26.7008,346.7230,4.308065,0.1102252,0.81865868,331.2440,09/28.0/2022,2000,g 17.5,10.0
# From MPEC 2022-ST7
73P/Schwassmann-Wachmann,e,11.2278,69.6101,199.4897,3.092083,0.1812706,0.68533764,6.0201,09/28.0/2022,2000,g 11.5,6.0
# From MPC106348
73P-T/Schwassmann-Wachmann,e,11.2298,69.6127,199.4701,3.093548,0.1811419,0.68553374,5.7594,09/28.0/2022,2000,g 11.5,6.0
# From MPEC 2022-P18
73P-U/Schwassmann-Wachmann,e,11.0694,70.6768,199.8760,2.876013,0.2020775,0.66607039,6.8950,09/28.0/2022,2000,g 19.0,4.0
# From MPEC 2022-P18
73P-V/Schwassmann-Wachmann,e,11.2463,69.4535,199.3250,3.168035,0.1747910,0.69230844,5.9506,09/28.0/2022,2000,g 19.0,4.0
# From MPEC 2022-R15
73P-W/Schwassmann-Wachmann,e,11.6019,67.3174,198.7301,4.590419,0.1002133,0.78204527,3.3615,09/28.0/2022,2000,g 18.2,4.0
# From MPEC 2022-R15
73P-X/Schwassmann-Wachmann,e,11.2557,69.5282,199.3725,3.095906,0.1809349,0.68544474,6.0954,09/28.0/2022,2000,g 17.6,4.0
# From MPEC 2022-R15
73P-Y/Schwassmann-Wachmann,e,11.1980,69.7678,199.4635,3.033986,0.1865021,0.67994399,6.4744,09/28.0/2022,2000,g 17.4,4.0
# From MPEC 2022-P18
73P-BU/Schwassmann-Wachmann,e,11.0694,70.6768,199.8760,2.876013,0.2020775,0.66607039,6.8950,09/28.0/2022,2000,g 19.0,4.0
# From MPEC 2022-P18
73P-BV/Schwassmann-Wachmann,e,11.2463,69.4535,199.3250,3.168035,0.1747910,0.69230844,5.9506,09/28.0/2022,2000,g 19.0,4.0
# From MPEC 2022-R15
73P-BW/Schwassmann-Wachmann,e,11.6019,67.3174,198.7301,4.590419,0.1002133,0.78204527,3.3615,09/28.0/2022,2000,g 18.2,4.0
# From MPEC 2022-R15
73P-BX/Schwassmann-Wachmann,e,11.2557,69.5282,199.3725,3.095906,0.1809349,0.68544474,6.0954,09/28.0/2022,2000,g 17.6,4.0
# From MPEC 2022-R15
73P-BY/Schwassmann-Wachmann,e,11.1980,69.7678,199.4635,3.033986,0.1865021,0.67994399,6.4744,09/28.0/2022,2000,g 17.4,4.0
# From MPEC 2022-ST7
74P/Smirnova-Chernykh,e,6.2043,56.4981,136.5480,4.565749,0.1010267,0.09929546,160.3457,09/28.0/2022,2000,g  5.0,6.0
# From MPEC 2022-K19
76P/West-Kohoutek-Ikemura,e,30.4767,84.1048,359.9357,3.470929,0.1524177,0.53857830,162.7455,09/28.0/2022,2000,g  8.0,12.0
# From MPEC 2022-M21
77P/Longmore,e,24.3188,14.7684,196.7520,3.623807,0.1428751,0.35188362,333.2562,09/28.0/2022,2000,g  7.0,8.0
# From MPEC 2021-O56
78P/Gehrels,e,6.2561,210.5163,192.6378,3.737337,0.1364146,0.46276156,173.6838,09/28.0/2022,2000,g  5.5,8.0
# From MPC 94675
79P/du Toit-Hartley,e,3.1484,280.5231,281.7824,2.943469,0.1951708,0.61904759,288.2930,09/28.0/2022,2000,g 16.0,4.0
# From MPEC 2014-P41
80P/Peters-Hartley,e,29.9225,259.7972,339.2471,4.024168,0.1220927,0.59859555,351.2258,09/28.0/2022,2000,g  9.0,4.0
# From MPEC 2022-P82
81P/Wild,e,3.2365,136.0990,41.6346,3.453999,0.1535397,0.53722483,347.9272,09/28.0/2022,2000,g  7.0,6.0
# From MPC133426
82P/Gehrels,e,1.1291,239.3192,226.4041,4.133607,0.1172763,0.12193128,182.7100,09/28.0/2022,2000,g 15.0,4.0
# From MPEC 2020-FB5
84P/Giclas,e,7.5503,108.1490,281.6145,3.549760,0.1473688,0.51603218,124.6450,09/28.0/2022,2000,g  9.5,8.0
# From MPEC 2022-QD9
86P/Wild,e,15.4744,72.3507,179.4530,3.602008,0.1441741,0.37230676,33.4884,09/28.0/2022,2000,g 11.0,6.0
# From MPEC 2020-SI8
87P/Bus,e,3.0550,180.8218,28.0128,3.464241,0.1528593,0.40928012,128.7659,09/28.0/2022,2000,g  7.2,10.0
# From MPEC 2022-ED3
88P/Howell,e,4.3824,56.6731,235.9338,3.105912,0.1800613,0.56382199,131.7410,09/28.0/2022,2000,g 11.0,6.0
# From MPC100283
89P/Russell,e,12.0712,41.3498,250.3966,3.753644,0.1355266,0.40822047,286.0699,09/28.0/2022,2000,g 11.5,6.0
# From MPEC 2022-K19
90P/Gehrels,e,9.6513,13.2055,29.0549,6.051158,0.0662135,0.51089430,127.4510,09/28.0/2022,2000,g  8.5,6.0
# From MPEC 2021-S45
91P/Russell,e,14.1279,246.9949,355.8539,3.904042,0.1277710,0.33375049,87.5907,09/28.0/2022,2000,g  7.5,6.0
# From MPEC 2014-J58
92P/Sanguin,e,19.5083,181.3616,163.8003,5.343156,0.0798008,0.66103393,220.3929,09/28.0/2022,2000,g 12.0,6.0
# From NK 2707
93P/Lovas,e,12.2033,339.6382,74.8282,4.380365,0.1075075,0.61343627,218.8369,09/28.0/2022,2000,g  9.0,4.0
# From MPEC 2021-Y10
94P/Russell,e,6.1879,70.8577,92.4308,3.508626,0.1499679,0.36527358,324.7379,09/28.0/2022,2000,g  9.0,6.0
# From MPC 75717
95P/Chiron,e,6.9201,209.3011,339.5087,13.71190,0.0194114,0.37623843,189.8561,09/28.0/2022,2000,g  6.5,2.0
# From MPEC 2022-ST7
96P/Machholz,e,57.5047,93.9560,14.7486,3.030243,0.1868477,0.96158017,336.6272,09/28.0/2022,2000,g 13.0,4.8
# From MPEC 2022-C56
97P/Metcalf-Brewington,e,17.9521,184.0768,229.9898,4.760675,0.0948858,0.46008230,21.2909,09/28.0/2022,2000,g  5.5,6.0
# From MPEC 2021-W31
98P/Takamizawa,e,10.5608,114.6832,157.8146,3.794251,0.1333568,0.56220683,84.1947,09/28.0/2022,2000,g  9.0,8.0
# From MPEC 2022-R68
99P/Kowal,e,4.3399,28.1016,174.8857,6.103377,0.0653655,0.22895156,11.0342,09/28.0/2022,2000,g  4.5,6.0
# From MPEC 2022-QD9
100P/Hartley,e,25.5665,37.6873,181.9703,3.431845,0.1550289,0.41208657,7.4493,09/28.0/2022,2000,g  9.0,8.0
# From MPEC 2022-K19
101P/Chernykh,e,5.0513,116.2116,277.7497,5.807758,0.0704192,0.59634487,69.6434,09/28.0/2022,2000,g 10.0,4.8
# From MPEC 2022-C56
102P/Shoemaker,e,25.8833,339.3674,20.6250,3.815693,0.1322342,0.45715770,81.1116,09/28.0/2022,2000,g  6.5,8.0
